{
"type": "FeatureCollection",
"name": "chenab_basin",
"crs": { "type": "name", "properties": { "name": "urn:ogc:def:crs:OGC:1.3:CRS84" } },
"features": [
{ "type": "Feature", "properties": { "HYBAS_ID": 4100686050, "NEXT_DOWN": 4100686560, "NEXT_SINK": 4100033640, "MAIN_BAS": 4100033640, "DIST_SINK": 1683.9, "DIST_MAIN": 1683.9, "SUB_AREA": 219.6, "UP_AREA": 29080.8, "PFAF_ID": 4564293970, "ENDO": 0, "COAST": 0, "ORDER": 3, "SORT": 92005 }, "geometry": { "type": "MultiPolygon", "coordinates": [ [ [ [ 74.279166666666697, 32.6 ], [ 74.275, 32.6 ], [ 74.274149068196635, 32.603315904405406 ], [ 74.270833333333357, 32.604166666666693 ], [ 74.270480007595509, 32.610757785373288 ], [ 74.267019992404542, 32.614242214626756 ], [ 74.266313340928846, 32.623257785373291 ], [ 74.258686659071202, 32.630908881293429 ], [ 74.257980007595506, 32.639214409722243 ], [ 74.264209832085527, 32.645475260416688 ], [ 74.269091118706626, 32.646186659071205 ], [ 74.272575547960088, 32.649646674262179 ], [ 74.277424452039952, 32.650353325737868 ], [ 74.280908881293428, 32.653813340928842 ], [ 74.306591118706621, 32.654519992404538 ], [ 74.314242214626759, 32.662146674262175 ], [ 74.319091118706623, 32.662853325737871 ], [ 74.33749949137372, 32.681235758463565 ], [ 74.333347913954015, 32.68541666666669 ], [ 74.337146674262172, 32.689242214626759 ], [ 74.337853325737868, 32.694091118706623 ], [ 74.345480007595512, 32.701742214626762 ], [ 74.346186659071208, 32.706591118706619 ], [ 74.349646674262175, 32.710075547960095 ], [ 74.350353325737871, 32.714924452039952 ], [ 74.355876498752195, 32.720475260416691 ], [ 74.360757785373295, 32.721186659071208 ], [ 74.366312662760436, 32.726713731553843 ], [ 74.367019992404536, 32.752424452039953 ], [ 74.374646674262181, 32.760075547960092 ], [ 74.375353325737876, 32.764924452039956 ], [ 74.378813340928843, 32.768408881293425 ], [ 74.379166666666691, 32.775 ], [ 74.381377156575553, 32.774432712131102 ], [ 74.393622843424509, 32.76306728786895 ], [ 74.399149068196635, 32.761649237738737 ], [ 74.400567287868952, 32.756122843424507 ], [ 74.411932712131104, 32.743877156575543 ], [ 74.413067287868955, 32.739456176757841 ], [ 74.416099378797767, 32.73554382324221 ], [ 74.416666666666686, 32.729166666666693 ], [ 74.417290242513047, 32.717575751410614 ], [ 74.42304382324221, 32.716099378797765 ], [ 74.428420003255241, 32.711932712131102 ], [ 74.43137715657555, 32.713067287868945 ], [ 74.436753336588566, 32.717233954535615 ], [ 74.443877156575553, 32.716099378797765 ], [ 74.451956176757832, 32.708900621202282 ], [ 74.460543823242219, 32.707766045464432 ], [ 74.472789510091175, 32.69640062120228 ], [ 74.47877078586157, 32.694865587022591 ], [ 74.48276604546443, 32.689710489908876 ], [ 74.483333333333363, 32.6875 ], [ 74.483333333333363, 32.683333333333358 ], [ 74.486649068196641, 32.682482571072072 ], [ 74.4875, 32.679166666666688 ], [ 74.488103400336399, 32.663519626193597 ], [ 74.497789510091167, 32.654733954535615 ], [ 74.518877156575542, 32.653599378797765 ], [ 74.532345241970518, 32.641099378797769 ], [ 74.536679755316868, 32.642636786566861 ], [ 74.538637118869389, 32.650264485677106 ], [ 74.543622843424501, 32.646400621202282 ], [ 74.557433742947069, 32.645172119140646 ], [ 74.558333333333366, 32.641666666666694 ], [ 74.557975260416697, 32.639209662543429 ], [ 74.552424452039958, 32.633686659071202 ], [ 74.539242214626768, 32.632980007595506 ], [ 74.531591118706629, 32.625353325737869 ], [ 74.522575547960102, 32.624646674262173 ], [ 74.518379550510005, 32.620480007595511 ], [ 74.510075547960099, 32.621186659071206 ], [ 74.505879550510002, 32.625353325737869 ], [ 74.501742214626759, 32.624646674262173 ], [ 74.498257785373283, 32.621186659071206 ], [ 74.489242214626756, 32.620480007595511 ], [ 74.485046217176674, 32.616313340928841 ], [ 74.472575547960091, 32.617019992404536 ], [ 74.468379550510008, 32.621186659071206 ], [ 74.426742214626756, 32.620480007595511 ], [ 74.419091118706618, 32.612853325737873 ], [ 74.405908881293428, 32.612146674262178 ], [ 74.402424452039952, 32.608686659071203 ], [ 74.4, 32.608333333333356 ], [ 74.399112616644985, 32.611791653103325 ], [ 74.389456176757832, 32.613067287868944 ], [ 74.385543823242216, 32.61609937879777 ], [ 74.381122843424507, 32.617233954535614 ], [ 74.377210489908876, 32.620266045464433 ], [ 74.374253336588566, 32.621400621202284 ], [ 74.36875, 32.617135281033008 ], [ 74.364710489908873, 32.620266045464433 ], [ 74.335289510091172, 32.621400621202284 ], [ 74.331377156575542, 32.624432712131103 ], [ 74.324253336588569, 32.625567287868947 ], [ 74.318877156575539, 32.621400621202284 ], [ 74.310289510091167, 32.620266045464433 ], [ 74.302210489908873, 32.613067287868944 ], [ 74.293622843424501, 32.6119327121311 ], [ 74.289710489908884, 32.608900621202281 ], [ 74.284184265136744, 32.607482571072069 ], [ 74.282482401529975, 32.60085076226131 ], [ 74.279166666666697, 32.6 ] ] ] ] } }
]
}
